     2.10           N: GNSS NAV DATA    E: Galileo          RINEX VERSION / TYPE
RTKCONV 2.4.2                           20240206 104915 UTC PGM / RUN BY / DATE 
log: C:\Users\adminlocal\Desktop\verniquet\verniquet\micro  COMMENT             
format: u-blox                                              COMMENT             
                                                            END OF HEADER       
E10 2024  2  6 19 30  0 -.599933846388E-03 -.288480350719E-11  .000000000000E+00
      .210000000000E+02  .701562500000E+02  .267796869100E-08  .638166297479E+00
      .328198075294E-05  .270508462563E-04 -.864267349243E-06  .544061426544E+04
      .243000000000E+06  .689178705215E-07 -.224630887475E+01  .577419996262E-07
      .999866228465E+00  .374968750000E+03  .546157655076E+00 -.575773983298E-08
      .126433837905E-09  .100000000000E+01  .230000000000E+04  .000000000000E+00
      .327670000000E+05  .000000000000E+00  .698491930962E-09  .139698386192E-08
      .243799000000E+06  .000000000000E+00
E12 2024  2  6 19 20  0 -.895121484064E-03 -.161293201018E-10  .000000000000E+00
      .200000000000E+02  .734375000000E+02  .271582741083E-08  .165552033205E+01
      .338070094585E-05  .433498877101E-03 -.118091702461E-05  .544061469269E+04
      .242400000000E+06  .931322574615E-08 -.224309780175E+01  .633299350739E-07
      .996910943765E+00  .381062500000E+03 -.170580592909E+00 -.574881088962E-08
      .133219834855E-09  .100000000000E+01  .230000000000E+04  .000000000000E+00
      .327670000000E+05  .000000000000E+00 -.107102096081E-07 -.107102096081E-07
      .243799000000E+06  .000000000000E+00
E11 2024  2  6 19 30  0  .325994583545E-02 -.168398628375E-10 -.346944695195E-17
      .210000000000E+02  .710625000000E+02  .274975739558E-08  .428675302081E+00
      .337325036526E-05  .369180226699E-03 -.109709799290E-05  .544061080933E+04
      .243000000000E+06  .856816768646E-07 -.224310158486E+01 -.223517417908E-07
      .996898573330E+00  .377343750000E+03  .328756098400E+00 -.580095591881E-08
      .778603860547E-10  .100000000000E+01  .230000000000E+04  .000000000000E+00
      .327670000000E+05  .000000000000E+00 -.128056854010E-07 -.139698386192E-07
      .243799000000E+06  .000000000000E+00
E25 2024  2  6 19 10  0  .532367266715E-06  .525801624462E-12  .000000000000E+00
      .190000000000E+02  .249375000000E+02  .315048837334E-08  .154250416701E+01
      .119395554066E-05  .220395158976E-03  .874511897564E-05  .544060998917E+04
      .241800000000E+06  .391155481339E-07  .194860559714E+01  .242143869400E-07
      .966543198735E+00  .156906250000E+03  .392300129309E+00 -.533165065608E-08
     -.605739517197E-09  .100000000000E+01  .230000000000E+04  .000000000000E+00
      .327670000000E+05  .000000000000E+00  .395812094212E-08  .442378222942E-08
      .243799000000E+06  .000000000000E+00
E24 2024  2  6 19 20  0 -.583769753575E-03 -.209752215596E-10  .000000000000E+00
      .200000000000E+02  .210312500000E+02  .323227749447E-08  .192380984668E+01
      .100582838058E-05  .793348997831E-03  .869296491146E-05  .544062118721E+04
      .242400000000E+06 -.279396772385E-07  .195181519552E+01  .428408384323E-07
      .964382854943E+00  .157093750000E+03  .882103286320E+00 -.541451125041E-08
     -.618597195628E-09  .100000000000E+01  .230000000000E+04  .000000000000E+00
      .327670000000E+05  .000000000000E+00 -.349245965481E-08 -.442378222942E-08
      .243829000000E+06  .000000000000E+00
E19 2024  2  6 19 30  0 -.665573927108E-03  .737543359719E-10  .000000000000E+00
      .210000000000E+02 -.107406250000E+03  .272368488098E-08  .231383708405E+01
     -.491924583912E-05  .252434285358E-03  .115148723125E-04  .544062556267E+04
      .243000000000E+06  .113621354103E-06 -.145893875191E+00  .130385160446E-07
      .966528530056E+00  .965625000000E+02 -.197749913622E+01 -.515735768179E-08
      .563594904561E-09  .100000000000E+01  .230000000000E+04  .000000000000E+00
      .327670000000E+05  .000000000000E+00 -.395812094212E-08 -.395812094212E-08
      .243979000000E+06  .000000000000E+00
E10 2024  2  6 19 40  0 -.599935534410E-03 -.287059265247E-11  .000000000000E+00
      .220000000000E+02  .708125000000E+02  .268296889928E-08  .719279169916E+00
      .330992043018E-05  .269919401035E-04 -.922009348869E-06  .544061388588E+04
      .243600000000E+06  .596046447754E-07 -.224631238429E+01  .670552253723E-07
      .999866276741E+00  .376343750000E+03  .539429732865E+00 -.575523972884E-08
      .133934150324E-09  .100000000000E+01  .230000000000E+04  .000000000000E+00
      .327670000000E+05  .000000000000E+00  .698491930962E-09  .139698386192E-08
      .244279000000E+06  .000000000000E+00
E11 2024  2  6 19 40  0  .325993564911E-02 -.168398628375E-10 -.346944695195E-17
      .220000000000E+02  .716562500000E+02  .274654297597E-08  .502515939989E+00
      .340305268764E-05  .369289773516E-03 -.100955367088E-05  .544061126328E+04
      .243600000000E+06  .912696123123E-07 -.224310510464E+01 -.111758708954E-07
      .996898577719E+00  .375593750000E+03  .329300887629E+00 -.580274170748E-08
      .860750139413E-10  .100000000000E+01  .230000000000E+04  .000000000000E+00
      .327670000000E+05  .000000000000E+00 -.128056854010E-07 -.139698386192E-07
      .244279000000E+06  .000000000000E+00
E10 2024  2  6 19 50  0 -.599937222432E-03 -.287059265247E-11  .000000000000E+00
      .230000000000E+02  .720000000000E+02  .268904058076E-08  .802796396492E+00
      .335834920406E-05  .269354786724E-04 -.994652509689E-06  .544061338425E+04
      .244200000000E+06  .502914190292E-07 -.224631588944E+01  .726431608200E-07
      .999866335258E+00  .378000000000E+03  .530297428719E+00 -.575273962470E-08
      .140362989539E-09  .100000000000E+01  .230000000000E+04  .000000000000E+00
      .327670000000E+05  .000000000000E+00  .698491930962E-09  .139698386192E-08
      .244879000000E+06  .000000000000E+00
E11 2024  2  6 19 50  0  .325992546277E-02 -.168398628375E-10 -.346944695195E-17
      .230000000000E+02  .718437500000E+02  .274511434503E-08  .576510049706E+00
      .341236591339E-05  .369353569113E-03 -.944361090660E-06  .544061157799E+04
      .244200000000E+06  .968575477600E-07 -.224310863174E+01  .186264514923E-08
      .996898587959E+00  .374375000000E+03  .329692136292E+00 -.580381318069E-08
      .946467995620E-10  .100000000000E+01  .230000000000E+04  .000000000000E+00
      .327670000000E+05  .000000000000E+00 -.128056854010E-07 -.139698386192E-07
      .244879000000E+06  .000000000000E+00
E19 2024  2  6 19 50  0 -.665485393256E-03  .737543359719E-10  .000000000000E+00
      .230000000000E+02 -.109375000000E+03  .270868425614E-08  .246278378108E+01
     -.501610338688E-05  .252703204751E-03  .114683061838E-04  .544062502289E+04
      .244200000000E+06  .186264514923E-07 -.145899877544E+00  .130385160446E-07
      .966529551173E+00  .974687500000E+02 -.197767686467E+01 -.512199906611E-08
      .513235664040E-09  .100000000000E+01  .230000000000E+04  .000000000000E+00
      .327670000000E+05  .000000000000E+00 -.395812094212E-08 -.395812094212E-08
      .245209000000E+06  .000000000000E+00
E19 2024  2  6 20  0  0 -.665440980811E-03  .737685468266E-10  .000000000000E+00
      .240000000000E+02 -.110156250000E+03  .271082720255E-08  .253719376037E+01
     -.504963099957E-05  .252828700468E-03  .114422291517E-04  .544062477493E+04
      .244800000000E+06  .745058059692E-08 -.145902927728E+00  .931322574615E-08
      .966529900810E+00  .980937500000E+02 -.197770231945E+01 -.511842748876E-08
      .507163982558E-09  .100000000000E+01  .230000000000E+04  .000000000000E+00
      .327670000000E+05  .000000000000E+00 -.395812094212E-08 -.395812094212E-08
      .245479000000E+06  .000000000000E+00
E11 2024  2  6 20  0  0  .325991521822E-02 -.168540736922E-10 -.346944695195E-17
      .240000000000E+02  .718437500000E+02  .274475718730E-08  .650680600510E+00
      .341050326824E-05  .369379646145E-03 -.905245542526E-06  .544061174202E+04
      .244800000000E+06  .987201929092E-07 -.224311216176E+01  .167638063431E-07
      .996898605514E+00  .373718750000E+03  .329906879500E+00 -.580417033842E-08
      .103218585183E-09  .100000000000E+01  .230000000000E+04  .000000000000E+00
      .327670000000E+05  .000000000000E+00 -.128056854010E-07 -.139698386192E-07
      .245479000000E+06  .000000000000E+00
